{
  "norad_id": 52347,
  "name": "STARLINK-3826",
  "history": [
    {
      "epoch": "2026-03-28T19:06:54.892224",
      "apogee_km": 540.5978047610779,
      "perigee_km": 538.8759459535013,
      "latitude_deg": -3.087171646259564,
      "longitude_deg": -148.83900864003226,
      "semi_major_axis_km": 6917.87387535729,
      "eccentricity": 0.00012445,
      "inclination_deg": 53.2173,
      "raan_deg": 113.3565,
      "arg_perigee_deg": 84.2931,
      "mean_anomaly_deg": 275.8203,
      "mean_motion_rev_day": 15.08842131
    }
  ]
}